NORAD_CAT_ID,OBJECT_NAME,OBJECT_TYPE,EPOCH,MEAN_MOTION,ECCENTRICITY,INCLINATION,RA_OF_ASC_NODE,ARG_OF_PERICENTER,MEAN_ANOMALY,BSTAR,MEAN_MOTION_DOT,MEAN_MOTION_DDOT,TLE_LINE0,TLE_LINE1,TLE_LINE2,SEMIMAJOR_AXIS,PERIOD,APOGEE,PERIGEE,DECAYED
55776.0,STARLINK-5810,PAYLOAD,2023-07-14 22:00:00,14.98392997,0.0002755,70.0006,146.8805,268.5314,143.4398,-0.0076975,-0.00090904,0.0,0 STARLINK-5810,1 55776U 23028AM  23195.91667824 -.00090904  00000-0 -76975-2 0  9998,2 55776  70.0006 146.8805 0002755 268.5314 143.4398 14.98392997 21427,6949.998,96.103,573.778,569.948,0.0
55776.0,STARLINK-5810,PAYLOAD,2023-07-15 14:00:01,14.98319443,0.0002259,70.0004,145.1995,271.8401,135.1298,-0.00033493,-4.086e-05,0.0,0 STARLINK-5810,1 55776U 23028AM  23196.58334491 -.00004086  00000-0 -33493-3 0  9998,2 55776  70.0004 145.1995 0002259 271.8401 135.1298 14.98319443 21523,6950.226,96.108,573.661,570.52,0.0
55776.0,STARLINK-5810,PAYLOAD,2023-07-16 14:00:01,14.9832074,0.0002285,70.0008,142.6783,269.1998,130.2012,8.5086e-05,9.22e-06,0.0,0 STARLINK-5810,1 55776U 23028AM  23197.58334491  .00000922  00000-0  85086-4 0  9998,2 55776  70.0008 142.6783 0002285 269.1998 130.2012 14.98320740 21672,6950.222,96.108,573.675,570.498,0.0
55776.0,STARLINK-5810,PAYLOAD,2023-07-16 20:00:01,14.98301055,0.0002198,70.0011,142.0482,264.5561,42.9108,0.0026121,0.00031189,0.0,0 STARLINK-5810,1 55776U 23028AM  23197.83334491  .00031189  00000-0  26121-2 0  9998,2 55776  70.0011 142.0482 0002198 264.5561  42.9108 14.98301055 21712,6950.282,96.109,573.675,570.62,0.0
55776.0,STARLINK-5810,PAYLOAD,2023-07-17 12:00:00,14.9834113,0.0002225,70.001,140.3673,270.9751,31.4166,-0.0032171,-0.00038279,0.0,0 STARLINK-5810,1 55776U 23028AM  23198.50001157 -.00038279  00000-0 -32171-2 0  9994,2 55776  70.0010 140.3673 0002225 270.9751  31.4166 14.98341130 21813,6950.158,96.106,573.57,570.477,0.0
55776.0,STARLINK-5810,PAYLOAD,2023-07-17 22:00:00,14.98358418,0.0002276,70.0015,139.3169,265.0256,124.212,-0.001498,-0.00017933,0.0,0 STARLINK-5810,1 55776U 23028AM  23198.91667824 -.00017933  00000-0 -14980-2 0  9990,2 55776  70.0015 139.3169 0002276 265.0256 124.2120 14.98358418 21871,6950.105,96.105,573.552,570.388,0.0
55776.0,STARLINK-5810,PAYLOAD,2023-07-18 05:52:53,14.98332696,0.0002092,69.9996,138.4895,271.5381,88.5538,0.00011351,1.262e-05,0.0,0 STARLINK-5810,1 55776U 23028AM  23199.24505941  .00001262  00000-0  11351-3 0  9994,2 55776  69.9996 138.4895 0002092 271.5381  88.5538 14.98332696 21920,6950.185,96.107,573.504,570.596,0.0
55776.0,STARLINK-5810,PAYLOAD,2023-07-19 02:42:37,14.98338687,0.0002124,69.9995,136.301,270.7402,89.3514,0.00025823,2.99e-05,0.0,0 STARLINK-5810,1 55776U 23028AM  23200.11292880  .00002990  00000-0  25823-3 0  9996,2 55776  69.9995 136.3010 0002124 270.7402  89.3514 14.98338687 22050,6950.166,96.106,573.507,570.555,0.0
55776.0,STARLINK-5810,PAYLOAD,2023-07-20 05:56:54,14.9833598,0.000212,69.9997,133.4398,269.5795,90.5121,-6.562e-05,-8.76e-06,0.0,0 STARLINK-5810,1 55776U 23028AM  23201.24785487 -.00000876  00000-0 -65620-4 0  9994,2 55776  69.9997 133.4398 0002120 269.5795  90.5121 14.98335980 22226,6950.174,96.107,573.513,570.566,0.0
55776.0,STARLINK-5810,PAYLOAD,2023-07-21 05:58:55,14.98340941,0.0001983,70.0,130.9157,270.1094,89.9838,-0.00017634,-2.197e-05,0.0,0 STARLINK-5810,1 55776U 23028AM  23202.24925003 -.00002197  00000-0 -17634-3 0  9994,2 55776  70.0000 130.9157 0001983 270.1094  89.9838 14.98340941 22371,6950.159,96.106,573.402,570.646,0.0
55776.0,STARLINK-5810,PAYLOAD,2023-07-21 18:48:01,14.98314327,0.0001896,69.9996,129.568,272.5137,87.5804,-0.00012002,-1.524e-05,0.0,0 STARLINK-5810,1 55776U 23028AM  23202.78334683 -.00001524  00000-0 -12002-3 0  9998,2 55776  69.9996 129.5680 0001896 272.5137  87.5804 14.98314327 22459,6950.241,96.108,573.424,570.789,0.0
55776.0,STARLINK-5810,PAYLOAD,2023-07-24 04:28:49,14.98338001,0.0002104,69.9994,123.5088,274.2336,85.8582,0.00025286,2.926e-05,0.0,0 STARLINK-5810,1 55776U 23028AM  23205.18668750  .00002926  00000-0  25286-3 0  9993,2 55776  69.9994 123.5088 0002104 274.2336  85.8582 14.98338001 22815,6950.168,96.106,573.495,570.571,0.0
55776.0,STARLINK-5810,PAYLOAD,2023-07-25 04:30:51,14.98338284,0.0002227,69.9995,120.9834,276.8139,83.2766,-4.3605e-05,-6.13e-06,0.0,0 STARLINK-5810,1 55776U 23028AM  23206.18809093 -.00000613  00000-0 -43605-4 0  9990,2 55776  69.9995 120.9834 0002227 276.8139  83.2766 14.98338284 22966,6950.167,96.106,573.58,570.484,0.0
55776.0,STARLINK-5810,PAYLOAD,2023-07-26 04:32:51,14.98358542,0.0001911,69.9992,118.4581,267.7201,92.3739,-0.00046538,-5.645e-05,0.0,0 STARLINK-5810,1 55776U 23028AM  23207.18948319 -.00005645  00000-0 -46538-3 0  9993,2 55776  69.9992 118.4581 0001911 267.7201  92.3739 14.98358542 23110,6950.105,96.105,573.298,570.641,0.0
55776.0,STARLINK-5810,PAYLOAD,2023-07-26 17:21:55,14.98335024,0.0001878,69.9998,117.1123,269.7735,90.3208,2.6114e-05,2.19e-06,0.0,0 STARLINK-5810,1 55776U 23028AM  23207.72356358  .00000219  00000-0  26114-4 0  9998,2 55776  69.9998 117.1123 0001878 269.7735  90.3208 14.98335024 23197,6950.177,96.107,573.348,570.737,0.0
55776.0,STARLINK-5810,PAYLOAD,2023-07-27 04:34:51,14.9833796,0.000186,69.9998,115.9339,270.5955,89.4991,6.4681e-05,6.79e-06,0.0,0 STARLINK-5810,1 55776U 23028AM  23208.19087866  .00000679  00000-0  64681-4 0  9996,2 55776  69.9998 115.9339 0001860 270.5955  89.4991 14.98337960 23264,6950.168,96.106,573.326,570.741,0.0
55776.0,STARLINK-5810,PAYLOAD,2023-07-28 01:24:38,14.98314666,0.0001735,70.0001,113.7448,265.8766,94.2195,-0.0001024,-1.314e-05,0.0,0 STARLINK-5810,1 55776U 23028AM  23209.05877782 -.00001314  00000-0 -10240-3 0  9996,2 55776  70.0001 113.7448 0001735 265.8766  94.2195 14.98314666 23399,6950.24,96.108,573.311,570.899,0.0
55776.0,STARLINK-5810,PAYLOAD,2023-07-28 17:25:58,14.9836086,0.0002617,69.9988,112.0621,273.3971,86.6889,-0.00062248,-7.518e-05,0.0,0 STARLINK-5810,1 55776U 23028AM  23209.72636999 -.00007518  00000-0 -62248-3 0  9990,2 55776  69.9988 112.0621 0002617 273.3971  86.6889 14.98360860 23490,6950.097,96.105,573.781,570.144,0.0
55776.0,STARLINK-5810,PAYLOAD,2023-07-29 03:02:49,14.98198772,0.0001346,70.0,111.0536,291.1017,68.9998,0.002333,0.00027758,0.0,0 STARLINK-5810,1 55776U 23028AM  23210.12695981  .00027758  00000-0  23330-2 0  9996,2 55776  70.0000 111.0536 0001346 291.1017  68.9998 14.98198772 23551,6950.599,96.115,573.399,571.528,0.0
55776.0,STARLINK-5810,PAYLOAD,2023-07-29 19:04:07,14.98334165,0.0002234,69.9995,109.3695,277.8236,82.2669,4.0193e-05,3.87e-06,0.0,0 STARLINK-5810,1 55776U 23028AM  23210.79452558  .00000387  00000-0  40193-4 0  9997,2 55776  69.9995 109.3695 0002234 277.8236  82.2669 14.98334165 23651,6950.18,96.107,573.598,570.492,0.0
55776.0,STARLINK-5810,PAYLOAD,2023-07-30 19:06:08,14.98329731,0.0001602,70.0011,106.8448,278.0411,82.0566,1.4769e-05,8.3e-07,0.0,0 STARLINK-5810,1 55776U 23028AM  23211.79592797  .00000083  00000-0  14769-4 0  9991,2 55776  70.0011 106.8448 0001602 278.0411  82.0566 14.98329731 23801,6950.194,96.107,573.172,570.945,0.0
55776.0,STARLINK-5810,PAYLOAD,2023-08-01 03:08:48,14.98342838,0.0002117,69.9994,103.4781,273.9474,86.1442,-0.00019427,-2.411e-05,0.0,0 STARLINK-5810,1 55776U 23028AM  23213.13112260 -.00002411  00000-0 -19427-3 0  9998,2 55776  69.9994 103.4781 0002117 273.9474  86.1442 14.98342838 24000,6950.153,96.106,573.49,570.547,0.0
55776.0,STARLINK-5810,PAYLOAD,2023-08-01 17:34:01,14.98328292,0.000219,69.9991,101.9634,270.4161,89.6747,-1.2089e-05,-2.37e-06,0.0,0 STARLINK-5810,1 55776U 23028AM  23213.73196678 -.00000237  00000-0 -12089-4 0  9991,2 55776  69.9991 101.9634 0002190 270.4161  89.6747 14.98328292 24096,6950.198,96.107,573.585,570.541,0.0
55776.0,STARLINK-5810,PAYLOAD,2023-08-02 17:36:02,14.98330281,0.0002229,69.9991,99.4384,269.7862,90.3042,2.1407e-05,1.63e-06,0.0,0 STARLINK-5810,1 55776U 23028AM  23214.73336433  .00000163  00000-0  21407-4 0  9997,2 55776  69.9991  99.4384 0002229 269.7862  90.3042 14.98330281 24246,6950.192,96.107,573.606,570.508,0.0
55776.0,STARLINK-5810,PAYLOAD,2023-08-03 03:12:50,14.98335625,0.0002189,69.9991,98.4284,269.0832,91.0076,7.8797e-05,8.48e-06,0.0,0 STARLINK-5810,1 55776U 23028AM  23215.13391866  .00000848  00000-0  78797-4 0  9997,2 55776  69.9991  98.4284 0002189 269.0832  91.0076 14.98335625 24308,6950.175,96.107,573.562,570.519,0.0
55776.0,STARLINK-5810,PAYLOAD,2023-08-03 19:14:12,14.98323382,0.0002145,69.9995,96.7457,266.6175,93.4738,-4.6019e-05,-6.42e-06,0.0,0 STARLINK-5810,1 55776U 23028AM  23215.80152979 -.00000642  00000-0 -46019-4 0  9997,2 55776  69.9995  96.7457 0002145 266.6175  93.4738 14.98323382 24409,6950.213,96.107,573.569,570.588,0.0
55776.0,STARLINK-5810,PAYLOAD,2023-08-04 19:16:12,14.98330105,0.000234,69.9992,94.2183,269.8977,90.1914,4.0913e-05,3.95e-06,0.0,0 STARLINK-5810,1 55776U 23028AM  23216.80292372  .00000395  00000-0  40913-4 0  9990,2 55776  69.9992  94.2183 0002340 269.8977  90.1914 14.98330105 24554,6950.193,96.107,573.684,570.431,0.0
55776.0,STARLINK-5810,PAYLOAD,2023-08-05 01:40:44,14.98335856,0.0001986,69.9995,93.5458,256.6983,103.3955,5.5997e-05,5.75e-06,0.0,0 STARLINK-5810,1 55776U 23028AM  23217.06995920  .00000575  00000-0  55997-4 0  9996,2 55776  69.9995  93.5458 0001986 256.6983 103.3955 14.98335856 24594,6950.175,96.107,573.42,570.659,0.0
55776.0,STARLINK-5810,PAYLOAD,2023-08-06 01:42:44,14.9833625,0.0002233,69.9993,91.022,268.1137,91.9766,0.00013327,1.498e-05,0.0,0 STARLINK-5810,1 55776U 23028AM  23218.07135415  .00001498  00000-0  13327-3 0  9998,2 55776  69.9993  91.0220 0002233 268.1137  91.9766 14.98336250 24745,6950.174,96.107,573.591,570.487,0.0
55776.0,STARLINK-5810,PAYLOAD,2023-08-06 17:44:07,14.98322775,0.0001877,70.0003,89.342,250.4161,109.6795,-0.00012297,-1.559e-05,0.0,0 STARLINK-5810,1 55776U 23028AM  23218.73897011 -.00001559  00000-0 -12297-3 0  9993,2 55776  70.0003  89.3420 0001877 250.4161 109.6795 14.98322775 24843,6950.215,96.107,573.385,570.776,0.0
